[
    {
        "name": "台北市",
        "districts": [
        {"name": "中正區", "zipCode": "100"},
        {"name": "大同區", "zipCode": "103"},
        {"name": "中山區", "zipCode": "104"},
        {"name": "松山區", "zipCode": "105"},
        {"name": "大安區", "zipCode": "106"},
        {"name": "萬華區", "zipCode": "108"},
        {"name": "信義區", "zipCode": "110"},
        {"name": "士林區", "zipCode": "111"},
        {"name": "北投區", "zipCode": "112"},
        {"name": "内湖區", "zipCode": "114"},
        {"name": "南港區", "zipCode": "115"},
        {"name": "文山區", "zipCode": "116"}
        ]
    },
    {
        "name": "新北市",
        "districts": [
        {"name": "萬里區", "zipCode": "207"},
        {"name": "金山區", "zipCode": "208"},
        {"name": "板橋區", "zipCode": "220"},
        {"name": "汐止區", "zipCode": "221"},
        {"name": "深坑區", "zipCode": "222"},
        {"name": "石碇區", "zipCode": "223"},
        {"name": "瑞芳區", "zipCode": "224"},
        {"name": "平溪區", "zipCode": "226"},
        {"name": "雙溪區", "zipCode": "227"},
        {"name": "貢寮區", "zipCode": "228"},
        {"name": "新店區", "zipCode": "231"},
        {"name": "坪林區", "zipCode": "232"},
        {"name": "烏来區", "zipCode": "233"},
        {"name": "永和區", "zipCode": "234"},
        {"name": "中和區", "zipCode": "235"},
        {"name": "土城區", "zipCode": "236"},
        {"name": "三峡區", "zipCode": "237"},
        {"name": "树林區", "zipCode": "238"},
        {"name": "莺歌區", "zipCode": "239"},
        {"name": "三重區", "zipCode": "241"},
        {"name": "新庄區", "zipCode": "242"},
        {"name": "泰山區", "zipCode": "243"},
        {"name": "林口區", "zipCode": "244"},
        {"name": "芦洲區", "zipCode": "247"},
        {"name": "五股區", "zipCode": "248"},
        {"name": "八里區", "zipCode": "249"},
        {"name": "淡水區", "zipCode": "251"},
        {"name": "三芝區", "zipCode": "252"},
        {"name": "石门區", "zipCode": "253"}
        ]
    },
    {
        "name": "桃园市",
        "districts": [
        {"name": "中坜區", "zipCode": "320"},
        {"name": "平镇區", "zipCode": "324"},
        {"name": "龙潭區", "zipCode": "325"},
        {"name": "杨梅區", "zipCode": "326"},
        {"name": "新屋區", "zipCode": "327"},
        {"name": "观音區", "zipCode": "328"},
        {"name": "桃园區", "zipCode": "330"},
        {"name": "龟山區", "zipCode": "333"},
        {"name": "八德區", "zipCode": "334"},
        {"name": "大溪區", "zipCode": "335"},
        {"name": "复兴區", "zipCode": "336"},
        {"name": "大园區", "zipCode": "337"},
        {"name": "芦竹區", "zipCode": "338"}
        ]
    },
    {
        "name": "台中市",
        "districts": [
        {"name": "中区", "zipCode": "400"},
        {"name": "东区", "zipCode": "401"},
        {"name": "南区", "zipCode": "402"},
        {"name": "西区", "zipCode": "403"},
        {"name": "北区", "zipCode": "404"},
        {"name": "北屯区", "zipCode": "406"},
        {"name": "西屯区", "zipCode": "407"},
        {"name": "南屯区", "zipCode": "408"},
        {"name": "太平区", "zipCode": "411"},
        {"name": "大里区", "zipCode": "412"},
        {"name": "雾峰区", "zipCode": "413"},
        {"name": "乌日区", "zipCode": "414"},
        {"name": "丰原区", "zipCode": "420"},
        {"name": "后里区", "zipCode": "421"},
        {"name": "石冈区", "zipCode": "422"},
        {"name": "东势区", "zipCode": "423"},
        {"name": "和平区", "zipCode": "424"},
        {"name": "新社区", "zipCode": "426"},
        {"name": "潭子区", "zipCode": "427"},
        {"name": "大雅区", "zipCode": "428"},
        {"name": "神冈区", "zipCode": "429"},
        {"name": "大肚区", "zipCode": "432"},
        {"name": "沙鹿区", "zipCode": "433"},
        {"name": "龙井区", "zipCode": "434"},
        {"name": "梧栖区", "zipCode": "435"},
        {"name": "清水区", "zipCode": "436"},
        {"name": "大甲区", "zipCode": "437"},
        {"name": "外埔区", "zipCode": "438"},
        {"name": "大安区", "zipCode": "439"}
        ]
    },
    {
        "name": "台南市",
        "districts": [
        {"name": "中西区", "zipCode": "700"},
        {"name": "东区", "zipCode": "701"},
        {"name": "南区", "zipCode": "702"},
        {"name": "北区", "zipCode": "704"},
        {"name": "安平区", "zipCode": "708"},
        {"name": "安南区", "zipCode": "709"},
        {"name": "永康区", "zipCode": "710"},
        {"name": "归仁区", "zipCode": "711"},
        {"name": "新化区", "zipCode": "712"},
        {"name": "左镇区", "zipCode": "713"},
        {"name": "玉井区", "zipCode": "714"},
        {"name": "楠西区", "zipCode": "715"},
        {"name": "南化区", "zipCode": "716"},
        {"name": "仁德区", "zipCode": "717"},
        {"name": "关庙区", "zipCode": "718"},
        {"name": "龙崎区", "zipCode": "719"},
        {"name": "官田区", "zipCode": "720"},
        {"name": "麻豆区", "zipCode": "721"},
        {"name": "佳里区", "zipCode": "722"},
        {"name": "西港区", "zipCode": "723"},
        {"name": "七股区", "zipCode": "724"},
        {"name": "将军区", "zipCode": "725"},
        {"name": "学甲区", "zipCode": "726"},
        {"name": "北门区", "zipCode": "727"},
        {"name": "新营区", "zipCode": "730"},
        {"name": "后壁区", "zipCode": "731"},
        {"name": "白河区", "zipCode": "732"},
        {"name": "东山区", "zipCode": "733"},
        {"name": "六甲区", "zipCode": "734"},
        {"name": "下营区", "zipCode": "735"},
        {"name": "柳营区", "zipCode": "736"},
        {"name": "盐水区", "zipCode": "737"},
        {"name": "善化区", "zipCode": "741"},
        {"name": "大内区", "zipCode": "742"},
        {"name": "山上区", "zipCode": "743"},
        {"name": "新市区", "zipCode": "744"},
        {"name": "安定区", "zipCode": "745"}
        ]
    },
    {
        "name": "高雄市",
        "districts": [
        {"name": "新兴区", "zipCode": "800"},
        {"name": "前金区", "zipCode": "801"},
        {"name": "苓雅区", "zipCode": "802"},
        {"name": "盐埕区", "zipCode": "803"},
        {"name": "鼓山区", "zipCode": "804"},
        {"name": "旗津区", "zipCode": "805"},
        {"name": "前镇区", "zipCode": "806"},
        {"name": "三民区", "zipCode": "807"},
        {"name": "楠梓区", "zipCode": "811"},
        {"name": "小港区", "zipCode": "812"},
        {"name": "左营区", "zipCode": "813"},
        {"name": "仁武区", "zipCode": "814"},
        {"name": "大社区", "zipCode": "815"},
        {"name": "东沙群岛", "zipCode": "817"},
        {"name": "南沙群岛", "zipCode": "819"},
        {"name": "冈山区", "zipCode": "820"},
        {"name": "路竹区", "zipCode": "821"},
        {"name": "阿莲区", "zipCode": "822"},
        {"name": "田寮区", "zipCode": "823"},
        {"name": "燕巢区", "zipCode": "824"},
        {"name": "桥头区", "zipCode": "825"},
        {"name": "梓官区", "zipCode": "826"},
        {"name": "弥陀区", "zipCode": "827"},
        {"name": "永安区", "zipCode": "828"},
        {"name": "湖内区", "zipCode": "829"},
        {"name": "凤山区", "zipCode": "830"},
        {"name": "大寮区", "zipCode": "831"},
        {"name": "林园区", "zipCode": "832"},
        {"name": "鸟松区", "zipCode": "833"},
        {"name": "大树区", "zipCode": "840"},
        {"name": "旗山区", "zipCode": "842"},
        {"name": "美浓区", "zipCode": "843"},
        {"name": "六龟区", "zipCode": "844"},
        {"name": "内门区", "zipCode": "845"},
        {"name": "杉林区", "zipCode": "846"},
        {"name": "甲仙区", "zipCode": "847"},
        {"name": "桃源区", "zipCode": "848"},
        {"name": "那玛夏区", "zipCode": "849"},
        {"name": "茂林区", "zipCode": "851"},
        {"name": "茄萣区", "zipCode": "852"}
        ]
    },
    {
        "name": "基隆市",
        "districts": [
        {"name": "仁爱区", "zipCode": "200"},
        {"name": "信义区", "zipCode": "201"},
        {"name": "中正区", "zipCode": "202"},
        {"name": "中山区", "zipCode": "203"},
        {"name": "安乐区", "zipCode": "204"},
        {"name": "暖暖区", "zipCode": "205"},
        {"name": "七堵区", "zipCode": "206"}
        ]
    },
    {
        "name": "新竹市",
        "districts": [
        {"name": "东区", "zipCode": "300"},
        {"name": "北区", "zipCode": "300"},
        {"name": "香山区", "zipCode": "300"}
        ]
    },
    {
        "name": "新竹县",
        "districts": [
        {"name": "竹北市", "zipCode": "302"},
        {"name": "湖口乡", "zipCode": "303"},
        {"name": "新丰乡", "zipCode": "304"},
        {"name": "新埔镇", "zipCode": "305"},
        {"name": "关西镇", "zipCode": "306"},
        {"name": "芎林乡", "zipCode": "307"},
        {"name": "宝山乡", "zipCode": "308"},
        {"name": "竹东镇", "zipCode": "310"},
        {"name": "五峰乡", "zipCode": "311"},
        {"name": "横山乡", "zipCode": "312"},
        {"name": "尖石乡", "zipCode": "313"},
        {"name": "北埔乡", "zipCode": "314"},
        {"name": "峨眉乡", "zipCode": "315"}
        ]
    },
    {
        "name": "苗栗县",
        "districts": [
        {"name": "竹南镇", "zipCode": "350"},
        {"name": "头份市", "zipCode": "351"},
        {"name": "三湾乡", "zipCode": "352"},
        {"name": "南庄乡", "zipCode": "353"},
        {"name": "狮潭乡", "zipCode": "354"},
        {"name": "后龙镇", "zipCode": "356"},
        {"name": "通霄镇", "zipCode": "357"},
        {"name": "苑里镇", "zipCode": "358"},
        {"name": "苗栗市", "zipCode": "360"},
        {"name": "造桥乡", "zipCode": "361"},
        {"name": "头屋乡", "zipCode": "362"},
        {"name": "公馆乡", "zipCode": "363"},
        {"name": "大湖乡", "zipCode": "364"},
        {"name": "泰安乡", "zipCode": "365"},
        {"name": "铜锣乡", "zipCode": "366"},
        {"name": "三义乡", "zipCode": "367"},
        {"name": "西湖乡", "zipCode": "368"},
        {"name": "卓兰镇", "zipCode": "369"}
        ]
    },
    {
        "name": "彰化县",
        "districts": [
        {"name": "彰化市", "zipCode": "500"},
        {"name": "芬园乡", "zipCode": "502"},
        {"name": "花坛乡", "zipCode": "503"},
        {"name": "秀水乡", "zipCode": "504"},
        {"name": "鹿港镇", "zipCode": "505"},
        {"name": "福兴乡", "zipCode": "506"},
        {"name": "线西乡", "zipCode": "507"},
        {"name": "和美镇", "zipCode": "508"},
        {"name": "伸港乡", "zipCode": "509"},
        {"name": "员林市", "zipCode": "510"},
        {"name": "社头乡", "zipCode": "511"},
        {"name": "永靖乡", "zipCode": "512"},
        {"name": "埔心乡", "zipCode": "513"},
        {"name": "溪湖镇", "zipCode": "514"},
        {"name": "大村乡", "zipCode": "515"},
        {"name": "埔盐乡", "zipCode": "516"},
        {"name": "田中镇", "zipCode": "520"},
        {"name": "北斗镇", "zipCode": "521"},
        {"name": "田尾乡", "zipCode": "522"},
        {"name": "埤头乡", "zipCode": "523"},
        {"name": "溪州乡", "zipCode": "524"},
        {"name": "竹塘乡", "zipCode": "525"},
        {"name": "二林镇", "zipCode": "526"},
        {"name": "大城乡", "zipCode": "527"},
        {"name": "芳苑乡", "zipCode": "528"},
        {"name": "二水乡", "zipCode": "530"}
        ]
    },
    {
        "name": "南投县",
        "districts": [
        {"name": "南投市", "zipCode": "540"},
        {"name": "中寮乡", "zipCode": "541"},
        {"name": "草屯镇", "zipCode": "542"},
        {"name": "国姓乡", "zipCode": "544"},
        {"name": "埔里镇", "zipCode": "545"},
        {"name": "仁爱乡", "zipCode": "546"},
        {"name": "名间乡", "zipCode": "551"},
        {"name": "集集镇", "zipCode": "552"},
        {"name": "水里乡", "zipCode": "553"},
        {"name": "鱼池乡", "zipCode": "555"},
        {"name": "信义乡", "zipCode": "556"},
        {"name": "竹山镇", "zipCode": "557"},
        {"name": "鹿谷乡", "zipCode": "558"}
        ]
    },
    {
        "name": "云林县",
        "districts": [
        {"name": "斗南镇", "zipCode": "630"},
        {"name": "大埤乡", "zipCode": "631"},
        {"name": "虎尾镇", "zipCode": "632"},
        {"name": "土库镇", "zipCode": "633"},
        {"name": "褒忠乡", "zipCode": "634"},
        {"name": "东势乡", "zipCode": "635"},
        {"name": "台西乡", "zipCode": "636"},
        {"name": "仑背乡", "zipCode": "637"},
        {"name": "麦寮乡", "zipCode": "638"},
        {"name": "斗六市", "zipCode": "640"},
        {"name": "林内乡", "zipCode": "643"},
        {"name": "古坑乡", "zipCode": "646"},
        {"name": "莿桐乡", "zipCode": "647"},
        {"name": "西螺镇", "zipCode": "648"},
        {"name": "二仑乡", "zipCode": "649"},
        {"name": "北港镇", "zipCode": "651"},
        {"name": "水林乡", "zipCode": "652"},
        {"name": "口湖乡", "zipCode": "653"},
        {"name": "四湖乡", "zipCode": "654"},
        {"name": "元长乡", "zipCode": "655"}
        ]
    },
    {
        "name": "嘉义市",
        "districts": [
        {"name": "东区", "zipCode": "600"},
        {"name": "西区", "zipCode": "600"}
        ]
    },
    {
        "name": "嘉义县",
        "districts": [
        {"name": "番路乡", "zipCode": "602"},
        {"name": "梅山乡", "zipCode": "603"},
        {"name": "竹崎乡", "zipCode": "604"},
        {"name": "阿里山乡", "zipCode": "605"},
        {"name": "中埔乡", "zipCode": "606"},
        {"name": "大埔乡", "zipCode": "607"},
        {"name": "水上乡", "zipCode": "608"},
        {"name": "鹿草乡", "zipCode": "611"},
        {"name": "太保市", "zipCode": "612"},
        {"name": "朴子市", "zipCode": "613"},
        {"name": "东石乡", "zipCode": "614"},
        {"name": "六脚乡", "zipCode": "615"},
        {"name": "新港乡", "zipCode": "616"},
        {"name": "民雄乡", "zipCode": "621"},
        {"name": "大林镇", "zipCode": "622"},
        {"name": "溪口乡", "zipCode": "623"},
        {"name": "义竹乡", "zipCode": "624"},
        {"name": "布袋镇", "zipCode": "625"}
        ]
    },
    {
        "name": "屏东县",
        "districts": [
        {"name": "屏东市", "zipCode": "900"},
        {"name": "三地门乡", "zipCode": "901"},
        {"name": "雾台乡", "zipCode": "902"},
        {"name": "玛家乡", "zipCode": "903"},
        {"name": "九如乡", "zipCode": "904"},
        {"name": "里港乡", "zipCode": "905"},
        {"name": "高树乡", "zipCode": "906"},
        {"name": "盐埔乡", "zipCode": "907"},
        {"name": "长治乡", "zipCode": "908"},
        {"name": "麟洛乡", "zipCode": "909"},
        {"name": "竹田乡", "zipCode": "911"},
        {"name": "内埔乡", "zipCode": "912"},
        {"name": "万丹乡", "zipCode": "913"},
        {"name": "潮州镇", "zipCode": "920"},
        {"name": "泰武乡", "zipCode": "921"},
        {"name": "来义乡", "zipCode": "922"},
        {"name": "万峦乡", "zipCode": "923"},
        {"name": "崁顶乡", "zipCode": "924"},
        {"name": "新埤乡", "zipCode": "925"},
        {"name": "南州乡", "zipCode": "926"},
        {"name": "林边乡", "zipCode": "927"},
        {"name": "东港镇", "zipCode": "928"},
        {"name": "琉球乡", "zipCode": "929"},
        {"name": "佳冬乡", "zipCode": "931"},
        {"name": "新园乡", "zipCode": "932"},
        {"name": "枋寮乡", "zipCode": "940"},
        {"name": "枋山乡", "zipCode": "941"},
        {"name": "春日乡", "zipCode": "942"},
        {"name": "狮子乡", "zipCode": "943"},
        {"name": "车城乡", "zipCode": "944"},
        {"name": "牡丹乡", "zipCode": "945"},
        {"name": "恒春镇", "zipCode": "946"},
        {"name": "满州乡", "zipCode": "947"}
        ]
    },
    {
        "name": "宜兰县",
        "districts": [
        {"name": "宜兰市", "zipCode": "260"},
        {"name": "头城镇", "zipCode": "261"},
        {"name": "礁溪乡", "zipCode": "262"},
        {"name": "壮围乡", "zipCode": "263"},
        {"name": "员山乡", "zipCode": "264"},
        {"name": "罗东镇", "zipCode": "265"},
        {"name": "三星乡", "zipCode": "266"},
        {"name": "大同乡", "zipCode": "267"},
        {"name": "五结乡", "zipCode": "268"},
        {"name": "冬山乡", "zipCode": "269"},
        {"name": "苏澳镇", "zipCode": "270"},
        {"name": "南澳乡", "zipCode": "272"}
        ]
    },
    {
        "name": "花莲县",
        "districts": [
        {"name": "花莲市", "zipCode": "970"},
        {"name": "新城乡", "zipCode": "971"},
        {"name": "秀林乡", "zipCode": "972"},
        {"name": "吉安乡", "zipCode": "973"},
        {"name": "寿丰乡", "zipCode": "974"},
        {"name": "凤林镇", "zipCode": "975"},
        {"name": "光复乡", "zipCode": "976"},
        {"name": "丰滨乡", "zipCode": "977"},
        {"name": "瑞穗乡", "zipCode": "978"},
        {"name": "万荣乡", "zipCode": "979"},
        {"name": "玉里镇", "zipCode": "981"},
        {"name": "卓溪乡", "zipCode": "982"},
        {"name": "富里乡", "zipCode": "983"}
        ]
    },
    {
        "name": "台东县",
        "districts": [
        {"name": "台东市", "zipCode": "950"},
        {"name": "绿岛乡", "zipCode": "951"},
        {"name": "兰屿乡", "zipCode": "952"},
        {"name": "延平乡", "zipCode": "953"},
        {"name": "卑南乡", "zipCode": "954"},
        {"name": "鹿野乡", "zipCode": "955"},
        {"name": "关山镇", "zipCode": "956"},
        {"name": "海端乡", "zipCode": "957"},
        {"name": "池上乡", "zipCode": "958"},
        {"name": "东河乡", "zipCode": "959"},
        {"name": "成功镇", "zipCode": "961"},
        {"name": "长滨乡", "zipCode": "962"},
        {"name": "太麻里乡", "zipCode": "963"},
        {"name": "金峰乡", "zipCode": "964"},
        {"name": "大武乡", "zipCode": "965"},
        {"name": "达仁乡", "zipCode": "966"}
        ]
    },
    {
        "name": "澎湖县",
        "districts": [
        {"name": "马公市", "zipCode": "880"},
        {"name": "西屿乡", "zipCode": "881"},
        {"name": "望安乡", "zipCode": "882"},
        {"name": "七美乡", "zipCode": "883"},
        {"name": "白沙乡", "zipCode": "884"},
        {"name": "湖西乡", "zipCode": "885"}
        ]
    },
    {
        "name": "金门县",
        "districts": [
        {"name": "金城镇", "zipCode": "893"},
        {"name": "金湖镇", "zipCode": "891"},
        {"name": "金沙镇", "zipCode": "890"},
        {"name": "金宁乡", "zipCode": "892"},
        {"name": "烈屿乡", "zipCode": "894"},
        {"name": "乌坵乡", "zipCode": "896"}
        ]
    },
    {
        "name": "连江县",
        "districts": [
        {"name": "南竿乡", "zipCode": "209"},
        {"name": "北竿乡", "zipCode": "210"},
        {"name": "莒光乡", "zipCode": "211"},
        {"name": "东引乡", "zipCode": "212"}
        ]
    }
]